CCSDS_OMM_VERS = 2.0
CREATION_DATE  = 
ORIGINATOR     = 

OBJECT_NAME    = STARLINK-36498
OBJECT_ID      = 2026-002P
CENTER_NAME    = EARTH
REF_FRAME      = TEME
TIME_SYSTEM    = UTC
MEAN_ELEMENT_THEORY = SGP/SGP4

EPOCH          = 2026-01-20T06:00:02.000160
MEAN_MOTION    = 15.75028426
ECCENTRICITY   = .00013883
INCLINATION    = 42.9988
RA_OF_ASC_NODE = 243.6417
ARG_OF_PERICENTER = 279.7762
MEAN_ANOMALY   = 150.5273

EPHEMERIS_TYPE = 0
CLASSIFICATION_TYPE = U
NORAD_CAT_ID   = 67318
ELEMENT_SET_NO = 999
REV_AT_EPOCH   = 369
BSTAR          = .93393986E-4
MEAN_MOTION_DOT = .13886E-3
MEAN_MOTION_DDOT = 0

CCSDS_OMM_VERS = 2.0
CREATION_DATE  = 
ORIGINATOR     = 

OBJECT_NAME    = STARLINK-36470
OBJECT_ID      = 2026-002Q
CENTER_NAME    = EARTH
REF_FRAME      = TEME
TIME_SYSTEM    = UTC
MEAN_ELEMENT_THEORY = SGP/SGP4

EPOCH          = 2026-01-20T06:00:02.000160
MEAN_MOTION    = 15.75023879
ECCENTRICITY   = .00017652
INCLINATION    = 42.9989
RA_OF_ASC_NODE = 243.6470
ARG_OF_PERICENTER = 265.2217
MEAN_ANOMALY   = 163.1689

EPHEMERIS_TYPE = 0
CLASSIFICATION_TYPE = U
NORAD_CAT_ID   = 67319
ELEMENT_SET_NO = 999
REV_AT_EPOCH   = 369
BSTAR          = .12386263E-3
MEAN_MOTION_DOT = .18578E-3
MEAN_MOTION_DDOT = 0

CCSDS_OMM_VERS = 2.0
CREATION_DATE  = 
ORIGINATOR     = 

OBJECT_NAME    = STARLINK-36500
OBJECT_ID      = 2026-002R
CENTER_NAME    = EARTH
REF_FRAME      = TEME
TIME_SYSTEM    = UTC
MEAN_ELEMENT_THEORY = SGP/SGP4

EPOCH          = 2026-01-20T06:00:02.000160
MEAN_MOTION    = 15.75013528
ECCENTRICITY   = .00019125
INCLINATION    = 42.9989
RA_OF_ASC_NODE = 243.6379
ARG_OF_PERICENTER = 260.1576
MEAN_ANOMALY   = 172.0730

EPHEMERIS_TYPE = 0
CLASSIFICATION_TYPE = U
NORAD_CAT_ID   = 67320
ELEMENT_SET_NO = 999
REV_AT_EPOCH   = 369
BSTAR          = .24676131E-3
MEAN_MOTION_DOT = .37554E-3
MEAN_MOTION_DDOT = 0

CCSDS_OMM_VERS = 2.0
CREATION_DATE  = 
ORIGINATOR     = 

OBJECT_NAME    = STARLINK-36462
OBJECT_ID      = 2026-002S
CENTER_NAME    = EARTH
REF_FRAME      = TEME
TIME_SYSTEM    = UTC
MEAN_ELEMENT_THEORY = SGP/SGP4

EPOCH          = 2026-01-20T06:00:02.000160
MEAN_MOTION    = 15.75013507
ECCENTRICITY   = .00020514
INCLINATION    = 42.9990
RA_OF_ASC_NODE = 243.6281
ARG_OF_PERICENTER = 260.5943
MEAN_ANOMALY   = 175.4670

EPHEMERIS_TYPE = 0
CLASSIFICATION_TYPE = U
NORAD_CAT_ID   = 67321
ELEMENT_SET_NO = 999
REV_AT_EPOCH   = 363
BSTAR          = .31590155E-3
MEAN_MOTION_DOT = .48273E-3
MEAN_MOTION_DDOT = 0

CCSDS_OMM_VERS = 2.0
CREATION_DATE  = 
ORIGINATOR     = 

OBJECT_NAME    = STARLINK-36434
OBJECT_ID      = 2026-002T
CENTER_NAME    = EARTH
REF_FRAME      = TEME
TIME_SYSTEM    = UTC
MEAN_ELEMENT_THEORY = SGP/SGP4

EPOCH          = 2026-01-20T06:00:02.000160
MEAN_MOTION    = 15.75011565
ECCENTRICITY   = .0001973
INCLINATION    = 42.9988
RA_OF_ASC_NODE = 243.6328
ARG_OF_PERICENTER = 261.3091
MEAN_ANOMALY   = 172.8375

EPHEMERIS_TYPE = 0
CLASSIFICATION_TYPE = U
NORAD_CAT_ID   = 67322
ELEMENT_SET_NO = 999
REV_AT_EPOCH   = 363
BSTAR          = .31614536E-3
MEAN_MOTION_DOT = .48307E-3
MEAN_MOTION_DDOT = 0

CCSDS_OMM_VERS = 2.0
CREATION_DATE  = 
ORIGINATOR     = 

OBJECT_NAME    = STARLINK-36497
OBJECT_ID      = 2026-002U
CENTER_NAME    = EARTH
REF_FRAME      = TEME
TIME_SYSTEM    = UTC
MEAN_ELEMENT_THEORY = SGP/SGP4

EPOCH          = 2026-01-20T06:00:02.000160
MEAN_MOTION    = 15.75015384
ECCENTRICITY   = .00015537
INCLINATION    = 42.9989
RA_OF_ASC_NODE = 243.6230
ARG_OF_PERICENTER = 279.2351
MEAN_ANOMALY   = 158.7414

EPHEMERIS_TYPE = 0
CLASSIFICATION_TYPE = U
NORAD_CAT_ID   = 67323
ELEMENT_SET_NO = 999
REV_AT_EPOCH   = 369
BSTAR          = .30890391E-3
MEAN_MOTION_DOT = .47189E-3
MEAN_MOTION_DDOT = 0

CCSDS_OMM_VERS = 2.0
CREATION_DATE  = 
ORIGINATOR     = 

OBJECT_NAME    = STARLINK-36471
OBJECT_ID      = 2026-002V
CENTER_NAME    = EARTH
REF_FRAME      = TEME
TIME_SYSTEM    = UTC
MEAN_ELEMENT_THEORY = SGP/SGP4

EPOCH          = 2026-01-20T06:00:02.000160
MEAN_MOTION    = 15.75030216
ECCENTRICITY   = .00021407
INCLINATION    = 42.9989
RA_OF_ASC_NODE = 243.6135
ARG_OF_PERICENTER = 274.4506
MEAN_ANOMALY   = 167.3505

EPHEMERIS_TYPE = 0
CLASSIFICATION_TYPE = U
NORAD_CAT_ID   = 67324
ELEMENT_SET_NO = 999
REV_AT_EPOCH   = 363
BSTAR          = .14871234E-3
MEAN_MOTION_DOT = .22418E-3
MEAN_MOTION_DDOT = 0

CCSDS_OMM_VERS = 2.0
CREATION_DATE  = 
ORIGINATOR     = 

OBJECT_NAME    = STARLINK-36473
OBJECT_ID      = 2026-002W
CENTER_NAME    = EARTH
REF_FRAME      = TEME
TIME_SYSTEM    = UTC
MEAN_ELEMENT_THEORY = SGP/SGP4

EPOCH          = 2026-01-20T06:00:02.000160
MEAN_MOTION    = 15.75025598
ECCENTRICITY   = .00014356
INCLINATION    = 42.9988
RA_OF_ASC_NODE = 243.6179
ARG_OF_PERICENTER = 277.6903
MEAN_ANOMALY   = 162.1982

EPHEMERIS_TYPE = 0
CLASSIFICATION_TYPE = U
NORAD_CAT_ID   = 67325
ELEMENT_SET_NO = 999
REV_AT_EPOCH   = 378
BSTAR          = .17042202E-3
MEAN_MOTION_DOT = .25765E-3
MEAN_MOTION_DDOT = 0

CCSDS_OMM_VERS = 2.0
CREATION_DATE  = 
ORIGINATOR     = 

OBJECT_NAME    = STARLINK-36430
OBJECT_ID      = 2026-002X
CENTER_NAME    = EARTH
REF_FRAME      = TEME
TIME_SYSTEM    = UTC
MEAN_ELEMENT_THEORY = SGP/SGP4

EPOCH          = 2026-01-20T06:00:02.000160
MEAN_MOTION    = 15.75029124
ECCENTRICITY   = .00017683
INCLINATION    = 42.9988
RA_OF_ASC_NODE = 243.6031
ARG_OF_PERICENTER = 281.4277
MEAN_ANOMALY   = 164.2057

EPHEMERIS_TYPE = 0
CLASSIFICATION_TYPE = U
NORAD_CAT_ID   = 67326
ELEMENT_SET_NO = 999
REV_AT_EPOCH   = 378
BSTAR          = .21357609E-3
MEAN_MOTION_DOT = .32442E-3
MEAN_MOTION_DDOT = 0

CCSDS_OMM_VERS = 2.0
CREATION_DATE  = 
ORIGINATOR     = 

OBJECT_NAME    = STARLINK-36501
OBJECT_ID      = 2026-002Y
CENTER_NAME    = EARTH
REF_FRAME      = TEME
TIME_SYSTEM    = UTC
MEAN_ELEMENT_THEORY = SGP/SGP4

EPOCH          = 2026-01-20T06:00:02.000160
MEAN_MOTION    = 15.75026588
ECCENTRICITY   = .00019286
INCLINATION    = 42.9988
RA_OF_ASC_NODE = 243.6085
ARG_OF_PERICENTER = 274.9855
MEAN_ANOMALY   = 168.7337

EPHEMERIS_TYPE = 0
CLASSIFICATION_TYPE = U
NORAD_CAT_ID   = 67327
ELEMENT_SET_NO = 999
REV_AT_EPOCH   = 363
BSTAR          = .21609456E-3
MEAN_MOTION_DOT = .32828E-3
MEAN_MOTION_DDOT = 0

CCSDS_OMM_VERS = 2.0
CREATION_DATE  = 
ORIGINATOR     = 

OBJECT_NAME    = STARLINK-36489
OBJECT_ID      = 2026-002Z
CENTER_NAME    = EARTH
REF_FRAME      = TEME
TIME_SYSTEM    = UTC
MEAN_ELEMENT_THEORY = SGP/SGP4

EPOCH          = 2026-01-20T06:00:02.000160
MEAN_MOTION    = 15.75096512
ECCENTRICITY   = .00017139
INCLINATION    = 43.0026
RA_OF_ASC_NODE = 243.5989
ARG_OF_PERICENTER = 272.7717
MEAN_ANOMALY   = 174.7367

EPHEMERIS_TYPE = 0
CLASSIFICATION_TYPE = U
NORAD_CAT_ID   = 67328
ELEMENT_SET_NO = 999
REV_AT_EPOCH   = 378
BSTAR          = -.46658979E-3
MEAN_MOTION_DOT = -.71725E-3
MEAN_MOTION_DDOT = 0

CCSDS_OMM_VERS = 2.0
CREATION_DATE  = 
ORIGINATOR     = 

OBJECT_NAME    = STARLINK-36496
OBJECT_ID      = 2026-002AA
CENTER_NAME    = EARTH
REF_FRAME      = TEME
TIME_SYSTEM    = UTC
MEAN_ELEMENT_THEORY = SGP/SGP4

EPOCH          = 2026-01-20T06:00:02.000160
MEAN_MOTION    = 15.75036406
ECCENTRICITY   = .0001764
INCLINATION    = 42.9989
RA_OF_ASC_NODE = 243.5882
ARG_OF_PERICENTER = 282.4936
MEAN_ANOMALY   = 168.8854

EPHEMERIS_TYPE = 0
CLASSIFICATION_TYPE = U
NORAD_CAT_ID   = 67329
ELEMENT_SET_NO = 999
REV_AT_EPOCH   = 361
BSTAR          = .15689943E-3
MEAN_MOTION_DOT = .23689E-3
MEAN_MOTION_DDOT = 0

