STARLINK-36498          
1 67318U 26002P   26020.25002315  .00013886  00000+0  93394-4 0  9990
2 67318  42.9988 243.6417 0001388 279.7762 150.5273 15.75028426  3695
STARLINK-36470          
1 67319U 26002Q   26020.25002315  .00018578  00000+0  12386-3 0  9995
2 67319  42.9989 243.6470 0001765 265.2217 163.1689 15.75023879  3698
STARLINK-36500          
1 67320U 26002R   26020.25002315  .00037554  00000+0  24676-3 0  9997
2 67320  42.9989 243.6379 0001912 260.1576 172.0730 15.75013528  3690
STARLINK-36462          
1 67321U 26002S   26020.25002315  .00048273  00000+0  31590-3 0  9991
2 67321  42.9990 243.6281 0002051 260.5943 175.4670 15.75013507  3633
STARLINK-36434          
1 67322U 26002T   26020.25002315  .00048307  00000+0  31615-3 0  9998
2 67322  42.9988 243.6328 0001973 261.3091 172.8375 15.75011565  3633
STARLINK-36497          
1 67323U 26002U   26020.25002315  .00047189  00000+0  30890-3 0  9990
2 67323  42.9989 243.6230 0001553 279.2351 158.7414 15.75015384  3694
STARLINK-36471          
1 67324U 26002V   26020.25002315  .00022418  00000+0  14871-3 0  9990
2 67324  42.9989 243.6135 0002140 274.4506 167.3505 15.75030216  3633
STARLINK-36473          
1 67325U 26002W   26020.25002315  .00025765  00000+0  17042-3 0  9992
2 67325  42.9988 243.6179 0001435 277.6903 162.1982 15.75025598  3788
STARLINK-36430          
1 67326U 26002X   26020.25002315  .00032442  00000+0  21358-3 0  9998
2 67326  42.9988 243.6031 0001768 281.4277 164.2057 15.75029124  3787
STARLINK-36501          
1 67327U 26002Y   26020.25002315  .00032828  00000+0  21609-3 0  9996
2 67327  42.9988 243.6085 0001928 274.9855 168.7337 15.75026588  3639
STARLINK-36489          
1 67328U 26002Z   26020.25002315 -.00071725  00000+0 -46659-3 0  9990
2 67328  43.0026 243.5989 0001713 272.7717 174.7367 15.75096512  3782
STARLINK-36496          
1 67329U 26002AA  26020.25002315  .00023689  00000+0  15690-3 0  9996
2 67329  42.9989 243.5882 0001764 282.4936 168.8854 15.75036406  3611
